[{"OBJECT_NAME":"STARLINK-3828","OBJECT_ID":"2022-049U","EPOCH":"2026-03-09T06:14:41.988480","MEAN_MOTION":15.08840083,"ECCENTRICITY":0.00014184,"INCLINATION":53.217,"RA_OF_ASC_NODE":61.0537,"ARG_OF_PERICENTER":84.6305,"MEAN_ANOMALY":275.4849,"EPHEMERIS_TYPE":0,"CLASSIFICATION_TYPE":"U","NORAD_CAT_ID":52469,"ELEMENT_SET_NO":999,"REV_AT_EPOCH":21218,"BSTAR":-3.9567451e-5,"MEAN_MOTION_DOT":-9.18e-6,"MEAN_MOTION_DDOT":0},{"OBJECT_NAME":"LEMUR-2-AHMED-ASRAR","OBJECT_ID":"2024-149DN","EPOCH":"2026-03-09T17:35:01.338432","MEAN_MOTION":15.10376432,"ECCENTRICITY":0.00016334,"INCLINATION":97.7021,"RA_OF_ASC_NODE":152.9847,"ARG_OF_PERICENTER":18.5035,"MEAN_ANOMALY":341.6253,"EPHEMERIS_TYPE":0,"CLASSIFICATION_TYPE":"U","NORAD_CAT_ID":60576,"ELEMENT_SET_NO":999,"REV_AT_EPOCH":8554,"BSTAR":0.0007977347,"MEAN_MOTION_DOT":0.00013045,"MEAN_MOTION_DDOT":0}]
