STARLINK-3828           
1 52469U 22049U   26068.26020820 -.00000918  00000+0 -39567-4 0  9998
2 52469  53.2170  61.0537 0001418  84.6305 275.4849 15.08840083212188
LEMUR-2-AHMED-ASRAR     
1 60576U 24149DN  26068.73265438  .00013045  00000+0  79773-3 0  9992
2 60576  97.7021 152.9847 0001633  18.5035 341.6253 15.10376432 85541
